ONEWEB-0322             
1 49192U 21083G   25054.07389051  .00000283  00000+0  73974-3 0  9993
2 49192  87.8889  55.4955 0002266  88.4543 271.6846 13.13468417169318
ONEWEB-0324             
1 49193U 21083H   25054.12744940  .00000163  00000+0  38091-3 0  9990
2 49193  87.9047  70.7176 0001783  84.4722 275.6613 13.18683902168148
ONEWEB-0325             
1 49194U 21083J   25054.13220709  .00000042  00000+0  74271-4 0  9991
2 49194  87.9049  70.7335 0001964  91.5098 268.6259 13.18687982168155
ONEWEB-0326             
1 49195U 21083K   25053.76705134  .00000113  00000+0  25432-3 0  9993
2 49195  87.9046  70.7990 0001473  93.7295 266.4006 13.18687217166816
ONEWEB-0327             
1 49196U 21083L   25053.76625035  .00000110  00000+0  24699-3 0  9996
2 49196  87.9045  70.8263 0001551  98.1662 261.9646 13.18687813166838
